{"type": "FeatureCollection", "features": [ {"type": "Feature", "properties": {"norad_id": 66475, "name": "STARLINK-35538", "group": "last-30-days", "lat": -42.41255525502646, "lon": 2.705654648509377, "alt_km": 416.9467388649982, "timestamp": "2025-12-10T23:33:11.622062+00:00", "meta": {"OBJECT_NAME": "STARLINK-35538", "OBJECT_ID": "2025-262V", "EPOCH": "2025-12-10T14:37:43.381632", "MEAN_MOTION": 15.5062476, "ECCENTRICITY": 0.00015774, "INCLINATION": 43.0005, "RA_OF_ASC_NODE": 83.4963, "ARG_OF_PERICENTER": 282.2977, "MEAN_ANOMALY": 77.7707, "EPHEMERIS_TYPE": 0, "CLASSIFICATION_TYPE": "U", "NORAD_CAT_ID": 66475, "ELEMENT_SET_NO": 999, "REV_AT_EPOCH": 523, "BSTAR": 0.0018544896, "MEAN_MOTION_DOT": 0.00110176, "MEAN_MOTION_DDOT": 0}, "tle": {"line1": "1 66475U 25262V   25344.60952988  .00110176  00000+0  18545-2 0  9990", "line2": "2 66475  43.0005  83.4963 0001577 282.2977  77.7707 15.50624760  5233"}}, "geometry": {"type": "Point", "coordinates": [2.705654648509377, -42.41255525502646]}}, {"type": "Feature", "properties": {"norad_id": 66476, "name": "STARLINK-35372", "group": "last-30-days", "lat": -42.1378580339513, "lon": 5.1676875439189525, "alt_km": 417.17932624894, "timestamp": "2025-12-10T23:33:11.622071+00:00", "meta": {"OBJECT_NAME": "STARLINK-35372", "OBJECT_ID": "2025-262W", "EPOCH": "2025-12-10T14:37:13.984032", "MEAN_MOTION": 15.50596461, "ECCENTRICITY": 0.00014983, "INCLINATION": 43.0007, "RA_OF_ASC_NODE": 83.4935, "ARG_OF_PERICENTER": 265.6251, "MEAN_ANOMALY": 94.4438, "EPHEMERIS_TYPE": 0, "CLASSIFICATION_TYPE": "U", "NORAD_CAT_ID": 66476, "ELEMENT_SET_NO": 999, "REV_AT_EPOCH": 512, "BSTAR": 0.0011346417, "MEAN_MOTION_DOT": 0.00066834, "MEAN_MOTION_DDOT": 0}, "tle": {"line1": "1 66476U 25262W   25344.60918963  .00066834  00000+0  11346-2 0  9999", "line2": "2 66476  43.0007  83.4935 0001498 265.6251  94.4438 15.50596461  5128"}}, "geometry": {"type": "Point", "coordinates": [5.1676875439189525, -42.1378580339513]}}, {"type": "Feature", "properties": {"norad_id": 66477, "name": "STARLINK-35354", "group": "last-30-days", "lat": -41.40261563717496, "lon": 10.190107203238364, "alt_km": 417.18926925506, "timestamp": "2025-12-10T23:33:11.622081+00:00", "meta": {"OBJECT_NAME": "STARLINK-35354", "OBJECT_ID": "2025-262X", "EPOCH": "2025-12-10T14:36:14.701536", "MEAN_MOTION": 15.50594965, "ECCENTRICITY": 0.00014318, "INCLINATION": 43.0004, "RA_OF_ASC_NODE": 83.4869, "ARG_OF_PERICENTER": 274.8883, "MEAN_ANOMALY": 85.1814, "EPHEMERIS_TYPE": 0, "CLASSIFICATION_TYPE": "U", "NORAD_CAT_ID": 66477, "ELEMENT_SET_NO": 999, "REV_AT_EPOCH": 523, "BSTAR": 0.0010826471, "MEAN_MOTION_DOT": 0.00063727, "MEAN_MOTION_DDOT": 0}, "tle": {"line1": "1 66477U 25262X   25344.60850349  .00063727  00000+0  10826-2 0  9993", "line2": "2 66477  43.0004  83.4869 0001431 274.8883  85.1814 15.50594965  5236"}}, "geometry": {"type": "Point", "coordinates": [10.190107203238364, -41.40261563717496]}}, {"type": "Feature", "properties": {"norad_id": 66478, "name": "STARLINK-35283", "group": "last-30-days", "lat": -40.95307774853109, "lon": 12.6618727497909, "alt_km": 417.09958958325933, "timestamp": "2025-12-10T23:33:11.622092+00:00", "meta": {"OBJECT_NAME": "STARLINK-35283", "OBJECT_ID": "2025-262Y", "EPOCH": "2025-12-10T14:35:45.074112", "MEAN_MOTION": 15.50594209, "ECCENTRICITY": 0.00015803, "INCLINATION": 43.0007, "RA_OF_ASC_NODE": 83.4837, "ARG_OF_PERICENTER": 265.9752, "MEAN_ANOMALY": 94.0928, "EPHEMERIS_TYPE": 0, "CLASSIFICATION_TYPE": "U", "NORAD_CAT_ID": 66478, "ELEMENT_SET_NO": 999, "REV_AT_EPOCH": 523, "BSTAR": 0.0011972478, "MEAN_MOTION_DOT": 0.00070569, "MEAN_MOTION_DDOT": 0}, "tle": {"line1": "1 66478U 25262Y   25344.60816058  .00070569  00000+0  11972-2 0  9998", "line2": "2 66478  43.0007  83.4837 0001580 265.9752  94.0928 15.50594209  5232"}}, "geometry": {"type": "Point", "coordinates": [12.6618727497909, -40.95307774853109]}}, {"type": "Feature", "properties": {"norad_id": 66479, "name": "STARLINK-35581", "group": "last-30-days", "lat": -41.78897333544333, "lon": 7.750846009869473, "alt_km": 416.92289635410816, "timestamp": "2025-12-10T23:33:11.622102+00:00", "meta": {"OBJECT_NAME": "STARLINK-35581", "OBJECT_ID": "2025-262Z", "EPOCH": "2025-12-10T14:36:44.112096", "MEAN_MOTION": 15.50611641, "ECCENTRICITY": 0.00017128, "INCLINATION": 43.0004, "RA_OF_ASC_NODE": 83.4892, "ARG_OF_PERICENTER": 270.8415, "MEAN_ANOMALY": 89.2249, "EPHEMERIS_TYPE": 0, "CLASSIFICATION_TYPE": "U", "NORAD_CAT_ID": 66479, "ELEMENT_SET_NO": 999, "REV_AT_EPOCH": 523, "BSTAR": 0.001479209, "MEAN_MOTION_DOT": 0.00087515, "MEAN_MOTION_DDOT": 0}, "tle": {"line1": "1 66479U 25262Z   25344.60884389  .00087515  00000+0  14792-2 0  9993", "line2": "2 66479  43.0004  83.4892 0001712 270.8415  89.2249 15.50611641  5231"}}, "geometry": {"type": "Point", "coordinates": [7.750846009869473, -41.78897333544333]}}, {"type": "Feature", "properties": {"norad_id": 66480, "name": "STARLINK-35670", "group": "last-30-days", "lat": -40.442935015593015, "lon": 15.135211469779486, "alt_km": 417.0165948228441, "timestamp": "2025-12-10T23:33:11.622113+00:00", "meta": {"OBJECT_NAME": "STARLINK-35670", "OBJECT_ID": "2025-262AA", "EPOCH": "2025-12-10T14:35:15.388800", "MEAN_MOTION": 15.50605106, "ECCENTRICITY": 0.00015034, "INCLINATION": 43.0007, "RA_OF_ASC_NODE": 83.4807, "ARG_OF_PERICENTER": 270.6559, "MEAN_ANOMALY": 89.4129, "EPHEMERIS_TYPE": 0, "CLASSIFICATION_TYPE": "U", "NORAD_CAT_ID": 66480, "ELEMENT_SET_NO": 999, "REV_AT_EPOCH": 523, "BSTAR": 0.0017117416, "MEAN_MOTION_DOT": 0.00101484, "MEAN_MOTION_DDOT": 0}, "tle": {"line1": "1 66480U 25262AA  25344.60781700  .00101484  00000+0  17117-2 0  9994", "line2": "2 66480  43.0007  83.4807 0001503 270.6559  89.4129 15.50605106  5235"}}, "geometry": {"type": "Point", "coordinates": [15.135211469779486, -40.442935015593015]}}, {"type": "Feature", "properties": {"norad_id": 66481, "name": "STARLINK-35698", "group": "last-30-days", "lat": -39.893176483407814, "lon": 17.517277387467566, "alt_km": 416.97932556501837, "timestamp": "2025-12-10T23:33:11.622122+00:00", "meta": {"OBJECT_NAME": "STARLINK-35698", "OBJECT_ID": "2025-262AB", "EPOCH": "2025-12-10T14:34:45.723360", "MEAN_MOTION": 15.50604098, "ECCENTRICITY": 0.0001566, "INCLINATION": 43.0006, "RA_OF_ASC_NODE": 83.4774, "ARG_OF_PERICENTER": 274.936, "MEAN_ANOMALY": 85.1321, "EPHEMERIS_TYPE": 0, "CLASSIFICATION_TYPE": "U", "NORAD_CAT_ID": 66481, "ELEMENT_SET_NO": 999, "REV_AT_EPOCH": 523, "BSTAR": 0.0014311209, "MEAN_MOTION_DOT": 0.00084604, "MEAN_MOTION_DDOT": 0}, "tle": {"line1": "1 66481U 25262AB  25344.60747365  .00084604  00000+0  14311-2 0  9991", "line2": "2 66481  43.0006  83.4774 0001566 274.9360  85.1321 15.50604098  5230"}}, "geometry": {"type": "Point", "coordinates": [17.517277387467566, -39.893176483407814]}}, {"type": "Feature", "properties": {"norad_id": 66482, "name": "STARLINK-35648", "group": "last-30-days", "lat": -39.26378287242361, "lon": 19.97701167692656, "alt_km": 416.85101508808475, "timestamp": "2025-12-10T23:33:11.622131+00:00", "meta": {"OBJECT_NAME": "STARLINK-35648", "OBJECT_ID": "2025-262AC", "EPOCH": "2025-12-10T14:34:15.972384", "MEAN_MOTION": 15.50634337, "ECCENTRICITY": 0.00014267, "INCLINATION": 43.0004, "RA_OF_ASC_NODE": 83.4743, "ARG_OF_PERICENTER": 267.4165, "MEAN_ANOMALY": 92.6532, "EPHEMERIS_TYPE": 0, "CLASSIFICATION_TYPE": "U", "NORAD_CAT_ID": 66482, "ELEMENT_SET_NO": 999, "REV_AT_EPOCH": 507, "BSTAR": 0.002611752, "MEAN_MOTION_DOT": 0.00156282, "MEAN_MOTION_DDOT": 0}, "tle": {"line1": "1 66482U 25262AC  25344.60712931  .00156282  00000+0  26118-2 0  9993", "line2": "2 66482  43.0004  83.4743 0001426 267.4165  92.6532 15.50634337  5078"}}, "geometry": {"type": "Point", "coordinates": [19.97701167692656, -39.26378287242361]}}, {"type": "Feature", "properties": {"norad_id": 66483, "name": "STARLINK-35654", "group": "last-30-days", "lat": -38.63832808960029, "lon": 22.206567876541428, "alt_km": 416.8842622314223, "timestamp": "2025-12-10T23:33:11.622140+00:00", "meta": {"OBJECT_NAME": "STARLINK-35654", "OBJECT_ID": "2025-262AD", "EPOCH": "2025-12-10T14:33:46.426176", "MEAN_MOTION": 15.50610519, "ECCENTRICITY": 0.00015985, "INCLINATION": 43.001, "RA_OF_ASC_NODE": 83.471, "ARG_OF_PERICENTER": 271.8586, "MEAN_ANOMALY": 88.2091, "EPHEMERIS_TYPE": 0, "CLASSIFICATION_TYPE": "U", "NORAD_CAT_ID": 66483, "ELEMENT_SET_NO": 999, "REV_AT_EPOCH": 523, "BSTAR": 0.0016908636, "MEAN_MOTION_DOT": 0.00100245, "MEAN_MOTION_DDOT": 0}, "tle": {"line1": "1 66483U 25262AD  25344.60678734  .00100245  00000+0  16909-2 0  9991", "line2": "2 66483  43.0010  83.4710 0001598 271.8586  88.2091 15.50610519  5231"}}, "geometry": {"type": "Point", "coordinates": [22.206567876541428, -38.63832808960029]}}, {"type": "Feature", "properties": {"norad_id": 66484, "name": "STARLINK-35371", "group": "last-30-days", "lat": -37.920824006670244, "lon": 24.551810658572006, "alt_km": 416.8586393866235, "timestamp": "2025-12-10T23:33:11.622150+00:00", "meta": {"OBJECT_NAME": "STARLINK-35371", "OBJECT_ID": "2025-262AE", "EPOCH": "2025-12-10T14:33:16.714944", "MEAN_MOTION": 15.50631935, "ECCENTRICITY": 0.00013903, "INCLINATION": 43.0004, "RA_OF_ASC_NODE": 83.4689, "ARG_OF_PERICENTER": 265.516, "MEAN_ANOMALY": 94.5542, "EPHEMERIS_TYPE": 0, "CLASSIFICATION_TYPE": "U", "NORAD_CAT_ID": 66484, "ELEMENT_SET_NO": 999, "REV_AT_EPOCH": 523, "BSTAR": 0.0025921811, "MEAN_MOTION_DOT": 0.00155071, "MEAN_MOTION_DDOT": 0}, "tle": {"line1": "1 66484U 25262AE  25344.60644346  .00155071  00000+0  25922-2 0  9996", "line2": "2 66484  43.0004  83.4689 0001390 265.5160  94.5542 15.50631935  5234"}}, "geometry": {"type": "Point", "coordinates": [24.551810658572006, -37.920824006670244]}}]}